IRIDIUM 63              
1 25286U 98021B   25210.87800849  .00000314  00000+0  10011-3 0  9990
2 25286  86.3940  64.2145 0002246  91.5116 268.6338 14.36569994429977
IRIDIUM 69              
1 25319U 98026A   25211.38458285  .00000422  00000+0  12506-3 0  9993
2 25319  86.3936  77.1634 0001002 175.1766 184.9443 14.41000983429526
IRIDIUM 71              
1 25320U 98026B   25211.52466270  .00000357  00000+0  10464-3 0  9992
2 25320  86.3933  71.7862 0001305  16.5794 343.5448 14.41185893430088
IRIDIUM 73              
1 25344U 98032C   25211.21048113  .00000551  00000+0  13201-3 0  9991
2 25344  86.4403  28.5341 0002010 107.5709 252.5716 14.51751981437105
IRIDIUM 82              
1 25467U 98051A   25210.71705012  .00025866  00000+0  70128-3 0  9997
2 25467  86.3633  88.7984 0084271 133.4377 227.3927 15.33881747430476
