<?xml version="1.0" encoding="UTF-8"?>
<ndm xmlns:xsi="http://www.w3.org/2001/XMLSchema-instance" xsi:noNamespaceSchemaLocation="https://sanaregistry.org/r/ndmxml_unqualified/ndmxml-2.0.0-master-2.0.xsd">
<omm id="CCSDS_OMM_VERS" version="2.0">
<header><CREATION_DATE/><ORIGINATOR/></header><body><segment><metadata><OBJECT_NAME>IRIDIUM 63</OBJECT_NAME><OBJECT_ID>1998-021B</OBJECT_ID><CENTER_NAME>EARTH</CENTER_NAME><REF_FRAME>TEME</REF_FRAME><TIME_SYSTEM>UTC</TIME_SYSTEM><MEAN_ELEMENT_THEORY>SGP4</MEAN_ELEMENT_THEORY></metadata><data><meanElements><EPOCH>2025-07-29T21:04:19.933536</EPOCH><MEAN_MOTION>14.36569994</MEAN_MOTION><ECCENTRICITY>.0002246</ECCENTRICITY><INCLINATION>86.3940</INCLINATION><RA_OF_ASC_NODE>64.2145</RA_OF_ASC_NODE><ARG_OF_PERICENTER>91.5116</ARG_OF_PERICENTER><MEAN_ANOMALY>268.6338</MEAN_ANOMALY></meanElements><tleParameters><EPHEMERIS_TYPE>0</EPHEMERIS_TYPE><CLASSIFICATION_TYPE>U</CLASSIFICATION_TYPE><NORAD_CAT_ID>25286</NORAD_CAT_ID><ELEMENT_SET_NO>999</ELEMENT_SET_NO><REV_AT_EPOCH>42997</REV_AT_EPOCH><BSTAR>.10011E-3</BSTAR><MEAN_MOTION_DOT>.314E-5</MEAN_MOTION_DOT><MEAN_MOTION_DDOT>0</MEAN_MOTION_DDOT></tleParameters></data></segment></body></omm>
<omm id="CCSDS_OMM_VERS" version="2.0">
<header><CREATION_DATE/><ORIGINATOR/></header><body><segment><metadata><OBJECT_NAME>IRIDIUM 69</OBJECT_NAME><OBJECT_ID>1998-026A</OBJECT_ID><CENTER_NAME>EARTH</CENTER_NAME><REF_FRAME>TEME</REF_FRAME><TIME_SYSTEM>UTC</TIME_SYSTEM><MEAN_ELEMENT_THEORY>SGP4</MEAN_ELEMENT_THEORY></metadata><data><meanElements><EPOCH>2025-07-30T09:13:47.958240</EPOCH><MEAN_MOTION>14.41000983</MEAN_MOTION><ECCENTRICITY>.0001002</ECCENTRICITY><INCLINATION>86.3936</INCLINATION><RA_OF_ASC_NODE>77.1634</RA_OF_ASC_NODE><ARG_OF_PERICENTER>175.1766</ARG_OF_PERICENTER><MEAN_ANOMALY>184.9443</MEAN_ANOMALY></meanElements><tleParameters><EPHEMERIS_TYPE>0</EPHEMERIS_TYPE><CLASSIFICATION_TYPE>U</CLASSIFICATION_TYPE><NORAD_CAT_ID>25319</NORAD_CAT_ID><ELEMENT_SET_NO>999</ELEMENT_SET_NO><REV_AT_EPOCH>42952</REV_AT_EPOCH><BSTAR>.12506E-3</BSTAR><MEAN_MOTION_DOT>.422E-5</MEAN_MOTION_DOT><MEAN_MOTION_DDOT>0</MEAN_MOTION_DDOT></tleParameters></data></segment></body></omm>
<omm id="CCSDS_OMM_VERS" version="2.0">
<header><CREATION_DATE/><ORIGINATOR/></header><body><segment><metadata><OBJECT_NAME>IRIDIUM 71</OBJECT_NAME><OBJECT_ID>1998-026B</OBJECT_ID><CENTER_NAME>EARTH</CENTER_NAME><REF_FRAME>TEME</REF_FRAME><TIME_SYSTEM>UTC</TIME_SYSTEM><MEAN_ELEMENT_THEORY>SGP4</MEAN_ELEMENT_THEORY></metadata><data><meanElements><EPOCH>2025-07-30T12:35:30.857280</EPOCH><MEAN_MOTION>14.41185893</MEAN_MOTION><ECCENTRICITY>.0001305</ECCENTRICITY><INCLINATION>86.3933</INCLINATION><RA_OF_ASC_NODE>71.7862</RA_OF_ASC_NODE><ARG_OF_PERICENTER>16.5794</ARG_OF_PERICENTER><MEAN_ANOMALY>343.5448</MEAN_ANOMALY></meanElements><tleParameters><EPHEMERIS_TYPE>0</EPHEMERIS_TYPE><CLASSIFICATION_TYPE>U</CLASSIFICATION_TYPE><NORAD_CAT_ID>25320</NORAD_CAT_ID><ELEMENT_SET_NO>999</ELEMENT_SET_NO><REV_AT_EPOCH>43008</REV_AT_EPOCH><BSTAR>.10464E-3</BSTAR><MEAN_MOTION_DOT>.357E-5</MEAN_MOTION_DOT><MEAN_MOTION_DDOT>0</MEAN_MOTION_DDOT></tleParameters></data></segment></body></omm>
<omm id="CCSDS_OMM_VERS" version="2.0">
<header><CREATION_DATE/><ORIGINATOR/></header><body><segment><metadata><OBJECT_NAME>IRIDIUM 73</OBJECT_NAME><OBJECT_ID>1998-032C</OBJECT_ID><CENTER_NAME>EARTH</CENTER_NAME><REF_FRAME>TEME</REF_FRAME><TIME_SYSTEM>UTC</TIME_SYSTEM><MEAN_ELEMENT_THEORY>SGP4</MEAN_ELEMENT_THEORY></metadata><data><meanElements><EPOCH>2025-07-30T05:03:05.569632</EPOCH><MEAN_MOTION>14.51751981</MEAN_MOTION><ECCENTRICITY>.000201</ECCENTRICITY><INCLINATION>86.4403</INCLINATION><RA_OF_ASC_NODE>28.5341</RA_OF_ASC_NODE><ARG_OF_PERICENTER>107.5709</ARG_OF_PERICENTER><MEAN_ANOMALY>252.5716</MEAN_ANOMALY></meanElements><tleParameters><EPHEMERIS_TYPE>0</EPHEMERIS_TYPE><CLASSIFICATION_TYPE>U</CLASSIFICATION_TYPE><NORAD_CAT_ID>25344</NORAD_CAT_ID><ELEMENT_SET_NO>999</ELEMENT_SET_NO><REV_AT_EPOCH>43710</REV_AT_EPOCH><BSTAR>.13201E-3</BSTAR><MEAN_MOTION_DOT>.551E-5</MEAN_MOTION_DOT><MEAN_MOTION_DDOT>0</MEAN_MOTION_DDOT></tleParameters></data></segment></body></omm>
<omm id="CCSDS_OMM_VERS" version="2.0">
<header><CREATION_DATE/><ORIGINATOR/></header><body><segment><metadata><OBJECT_NAME>IRIDIUM 82</OBJECT_NAME><OBJECT_ID>1998-051A</OBJECT_ID><CENTER_NAME>EARTH</CENTER_NAME><REF_FRAME>TEME</REF_FRAME><TIME_SYSTEM>UTC</TIME_SYSTEM><MEAN_ELEMENT_THEORY>SGP4</MEAN_ELEMENT_THEORY></metadata><data><meanElements><EPOCH>2025-07-29T17:12:33.130368</EPOCH><MEAN_MOTION>15.33881747</MEAN_MOTION><ECCENTRICITY>.0084271</ECCENTRICITY><INCLINATION>86.3633</INCLINATION><RA_OF_ASC_NODE>88.7984</RA_OF_ASC_NODE><ARG_OF_PERICENTER>133.4377</ARG_OF_PERICENTER><MEAN_ANOMALY>227.3927</MEAN_ANOMALY></meanElements><tleParameters><EPHEMERIS_TYPE>0</EPHEMERIS_TYPE><CLASSIFICATION_TYPE>U</CLASSIFICATION_TYPE><NORAD_CAT_ID>25467</NORAD_CAT_ID><ELEMENT_SET_NO>999</ELEMENT_SET_NO><REV_AT_EPOCH>43047</REV_AT_EPOCH><BSTAR>.70128E-3</BSTAR><MEAN_MOTION_DOT>.25866E-3</MEAN_MOTION_DOT><MEAN_MOTION_DDOT>0</MEAN_MOTION_DDOT></tleParameters></data></segment></body></omm>
</ndm>
